BEIDOU-2 IGSO-1 (C06)   
1 36828U 10036A   23132.55943958 -.00000088  00000+0  00000+0 0  9991
2 36828  54.2083 173.2253 0035672 193.1903 171.6248  1.00255981 46889
BEIDOU-2 G4 (C04)       
1 37210U 10057A   23132.83921807 -.00000118  00000+0  00000+0 0  9994
2 37210   0.9416  52.9201 0000930  86.9016 192.6576  1.00271576 45932
BEIDOU-2 IGSO-2 (C07)   
1 37256U 10068A   23132.85413899 -.00000212  00000+0  00000+0 0  9990
2 37256  49.6196 285.6857 0025345 200.0136 160.1630  1.00263224 45457
BEIDOU-2 IGSO-3 (C08)   
1 37384U 11013A   23132.75590416 -.00000202  00000+0  00000+0 0  9992
2 37384  60.7735  51.0136 0022158 184.7025  13.5663  1.00268128 44321
BEIDOU-2 IGSO-4 (C09)   
1 37763U 11038A   23132.61937020  .00000007  00000+0  00000+0 0  9993
2 37763  54.4848 175.7477 0109610 229.2785 140.6127  1.00256128 43307
BEIDOU-2 IGSO-5 (C10)   
1 37948U 11073A   23132.89770566 -.00000157  00000+0  00000+0 0  9994
2 37948  49.7417 285.3444 0087249 218.4376 144.1107  1.00258840 42064
BEIDOU-2 G5 (C05)       
1 38091U 12008A   23133.03407293  .00000052  00000+0  00000+0 0  9997
2 38091   1.4474  65.5654 0004809 281.8827 314.0764  1.00268178 41138
BEIDOU-2 M3 (C11)       
1 38250U 12018A   23132.03243935 -.00000069  00000+0  00000+0 0  9994
2 38250  56.5693 342.6913 0020630 261.7705 285.5306  1.86231376 75201
BEIDOU-2 M4 (C12)       
1 38251U 12018B   23132.76094969 -.00000070  00000+0  00000+0 0  9998
2 38251  56.4812 341.9685 0011616 267.4144  93.6674  1.86234373 75224
BEIDOU-2 M6 (C14)       
1 38775U 12050B   23132.71003191  .00000047  00000+0  00000+0 0  9990
2 38775  55.6131 100.6122 0015154 325.0382 196.6122  1.86231366 72590
BEIDOU-2 G6 (C02)       
1 38953U 12059A   23133.11091042 -.00000181  00000+0  00000+0 0  9994
2 38953   1.7459  82.2154 0011436 309.6270 322.7894  1.00270602 38701
BEIDOU-3S IGSO-1S (C31) 
1 40549U 15019A   23132.88109782 -.00000179  00000+0  00000+0 0  9998
2 40549  51.3068 308.9079 0037158 191.1798 143.9410  1.00282444 29731
BEIDOU-3S M2S (C57)     
1 40748U 15037A   23131.74888052 -.00000067  00000+0  00000+0 0  9993
2 40748  55.7259 340.6682 0005461  32.8619 278.6326  1.86233494 53026
BEIDOU-3S M1S (C58)     
1 40749U 15037B   23133.50802728 -.00000072  00000+0  00000+0 0  9992
2 40749  55.7277 340.5988 0005407 355.6873 189.1468  1.86233118 53052
BEIDOU-3S IGSO-2S (C56) 
1 40938U 15053A   23133.17551981 -.00000155  00000+0  00000+0 0  9997
2 40938  50.9876 272.0662 0046773 193.0614 284.2748  1.00262964 28002
BEIDOU-2 IGSO-6 (C13)   
1 41434U 16021A   23132.75799468 -.00000171  00000+0  00000+0 0  9990
2 41434  58.5847  49.4386 0046703 225.9778 322.1071  1.00262061 26135
BEIDOU-2 G7 (C03)       
1 41586U 16037A   23132.89364735 -.00000359  00000+0  00000+0 0  9993
2 41586   1.6113  66.2219 0009634 354.1724 242.1630  1.00265204 25445
BEIDOU-3 M1 (C19)       
1 43001U 17069A   23133.36248954  .00000045  00000+0  00000+0 0  9991
2 43001  55.7653 100.6357 0012386 297.1686  98.4395  1.86231486 37548
BEIDOU-3 M2 (C20)       
1 43002U 17069B   23133.28419911  .00000045  00000+0  00000+0 0  9996
2 43002  55.7653 100.6732 0010383 313.8918  71.8773  1.86231346 37534
BEIDOU-3 M7 (C27)       
1 43107U 18003A   23133.31464468 -.00000074  00000+0  00000+0 0  9995
2 43107  55.1801 341.3871 0005578  58.1386 154.7874  1.86232551 36299
BEIDOU-3 M8 (C28)       
1 43108U 18003B   23132.92879142 -.00000073  00000+0  00000+0 0  9990
2 43108  55.1735 341.3879 0001897 271.7314  84.5509  1.86230969 36283
BEIDOU-3 M4 (C22)       
1 43207U 18018A   23132.30321438  .00000048  00000+0  00000+0 0  9999
2 43207  55.7236 100.7731 0007414 329.7554  30.1768  1.86231625 35665
BEIDOU-3 M3 (C21)       
1 43208U 18018B   23132.90674856  .00000047  00000+0  00000+0 0  9990
2 43208  55.7232 100.7577 0010327 305.0809  54.7982  1.86231601 35672
BEIDOU-3 M9 (C29)       
1 43245U 18029A   23132.55856597 -.00000069  00000+0  00000+0 0  9993
2 43245  55.0792 339.1565 0001263  43.9256 292.7747  1.86232579 34818
BEIDOU-3 M10 (C30)      
1 43246U 18029B   23133.25973617 -.00000071  00000+0  10000-3 0  9993
2 43246  55.0758 339.1609 0004945  13.7028 119.8987  1.86232955 34826
BEIDOU-2 IGSO-7 (C16)   
1 43539U 18057A   23132.56393006 -.00000095  00000+0  00000+0 0  9991
2 43539  55.1002 172.8379 0060713 230.6133 141.8843  1.00266098 17819
BEIDOU-3 M5 (C23)       
1 43581U 18062A   23133.28537852 -.00000019  00000+0  00000+0 0  9999
2 43581  54.1961 220.8053 0003030 271.8369  90.8927  1.86232048 32577
BEIDOU-3 M6 (C24)       
1 43582U 18062B   23133.12787407 -.00000018  00000+0  00000+0 0  9995
2 43582  54.1950 220.7998 0004579  20.5003 327.5250  1.86229570 32560
BEIDOU-3 M12 (C26)      
1 43602U 18067A   23132.64380291 -.00000014  00000+0  00000+0 0  9995
2 43602  54.2811 219.4613 0006856  17.8704  47.5123  1.86231824 32053
BEIDOU-3 M11 (C25)      
1 43603U 18067B   23132.77962541 -.00000014  00000+0  00000+0 0  9994
2 43603  54.2784 219.4227 0003846   9.9537  56.7838  1.86231701 32077
BEIDOU-3 M13 (C32)      
1 43622U 18072A   23132.30876721  .00000047  00000+0  00000+0 0  9999
2 43622  55.6924 100.3170 0009158 293.1423 205.9953  1.86231685 31578
BEIDOU-3 M14 (C33)      
1 43623U 18072B   23133.03730231  .00000045  00000+0  00000+0 0  9994
2 43623  55.6944 100.2854 0006846 311.6747  46.1506  1.86231708 31581
BEIDOU-3 M16 (C35)      
1 43647U 18078A   23132.37621157 -.00000069  00000+0  10000-3 0  9990
2 43647  54.9759 339.2947 0008378  15.0927 152.5660  1.86227457 31081
BEIDOU-3 M15 (C34)      
1 43648U 18078B   23132.54047498 -.00000070  00000+0  00000+0 0  9997
2 43648  54.9713 339.2934 0005338  27.2423 160.9133  1.86232313 31105
BEIDOU-3 G1 (C59)       
1 43683U 18085A   23132.83520848 -.00000283  00000+0  00000+0 0  9997
2 43683   1.2768 133.1345 0004344 312.3390 225.5847  1.00274008 16716
BEIDOU-3 M17 (C36)      
1 43706U 18093A   23133.48274460 -.00000019  00000+0  00000+0 0  9997
2 43706  54.2768 220.7086 0009089 275.1365  84.7984  1.86231791 30465
BEIDOU-3 M18 (C37)      
1 43707U 18093B   23130.66846272  .00000008  00000+0  00000+0 0  9998
2 43707  54.2787 220.7952 0006891 306.3706  57.5490  1.86229868 30421
BEIDOU-3 IGSO-1 (C38)   
1 44204U 19023A   23132.79844517 -.00000236  00000+0  00000+0 0  9995
2 44204  57.0512  49.4548 0018733 206.8428  20.1541  1.00263628 15010
BEIDOU-2 G8 (C01)       
1 44231U 19027A   23126.52763464 -.00000232  00000+0  00000+0 0  9990
2 44231   1.6560  81.0278 0004292 131.1477 346.4082  1.00268544 14665
BEIDOU-3 IGSO-2 (C39)   
1 44337U 19035A   23133.00031956 -.00000093  00000+0  00000+0 0  9996
2 44337  55.1409 168.7975 0030672 201.3271 338.4283  1.00256734 14356
BEIDOU-3 M24 (C46)      
1 44542U 19061A   23133.41991142 -.00000019  00000+0  00000+0 0  9998
2 44542  54.5040 220.9179 0007259 343.4160  16.5987  1.86231117 24735
BEIDOU-3 M23 (C45)      
1 44543U 19061B   23132.61169781 -.00000015  00000+0  00000+0 0  9992
2 44543  54.5032 220.9135 0004295 337.2885 112.5984  1.86231689 24717
BEIDOU-3 IGSO-3 (C40)   
1 44709U 19073A   23133.61563380 -.00000193  00000+0  00000+0 0  9990
2 44709  56.7277 292.9388 0030766 177.3590 100.8863  1.00262469 13106
BEIDOU-3 M22 (C44)      
1 44793U 19078A   23132.48077156 -.00000070  00000+0  10000-3 0  9992
2 44793  54.8243 339.2720 0007234  22.2271 172.0986  1.86232250 23572
BEIDOU-3 M21 (C43)      
1 44794U 19078B   23132.85257774 -.00000071  00000+0  00000+0 0  9996
2 44794  54.7974 339.2439 0005238  19.8163 336.0484  1.86232804 23574
BEIDOU-3 M19 (C41)      
1 44864U 19090A   23132.90491447  .00000046  00000+0  00000+0 0  9992
2 44864  55.6270 100.4896 0019631 277.4703 307.5199  1.86231916 23164
BEIDOU-3 M20 (C42)      
1 44865U 19090B   23132.59387492  .00000047  00000+0  00000+0 0  9993
2 44865  55.6287 100.5330 0017686 289.3358 176.9269  1.86231854 23137
BEIDOU-3 G2 (C60)       
1 45344U 20017A   23133.11091042 -.00000148  00000+0  00000+0 0  9992
2 45344   2.0033  10.0942 0002733  83.3394 257.1322  1.00272186 11934
BEIDOU-3 G3 (C61)       
1 45807U 20040A   23132.70696574 -.00000360  00000+0  00000+0 0  9993
2 45807   0.7644 324.8545 0005573 323.8887 306.5056  1.00266610 10724
